{"type": "Feature", "properties": {"city": "bucharest", "name": "Bucharest", "source": "nominatim/osm", "osm_type": "relation", "osm_id": 377733, "admin_level": 4, "osm_class_type": "boundary/administrative", "wikidata": "Q19660", "display_name": "Bucure\u0219ti, Rom\u00e2nia"}, "geometry": {"type": "Polygon", "coordinates": [[[25.9666745, 44.4407414], [25.96722, 44.4364458], [25.9668214, 44.4364835], [25.9672468, 44.4317148], [25.9676992, 44.4317294], [25.9687443, 44.4232432], [25.9695697, 44.4195976], [25.9708369, 44.4160028], [25.9762948, 44.4063859], [25.9821813, 44.4074386], [25.9890094, 44.4073516], [25.995521, 44.4092732], [25.997272, 44.4028199], [26.0024778, 44.4034962], [26.0029576, 44.4018438], [26.003331, 44.4016963], [26.0108775, 44.4057668], [26.0133129, 44.4034589], [26.0135883, 44.4036261], [26.0264894, 44.3912968], [26.027004, 44.3908237], [26.0278177, 44.3905704], [26.028489, 44.389704], [26.02884, 44.3898359], [26.0291035, 44.3895418], [26.0295896, 44.3897582], [26.0313274, 44.3883849], [26.0341116, 44.389811], [26.0343849, 44.3900705], [26.0340859, 44.3903218], [26.035044, 44.3909205], [26.0394286, 44.3870932], [26.0330426, 44.3831817], [26.0457571, 44.3749876], [26.0468782, 44.3769468], [26.0470377, 44.3776944], [26.0540398, 44.3760699], [26.0560933, 44.3795457], [26.061475, 44.3776807], [26.0689504, 44.3746489], [26.0693682, 44.3762159], [26.0716664, 44.3789688], [26.0769713, 44.3780806], [26.0753265, 44.3719929], [26.0807776, 44.370146], [26.0881463, 44.3692421], [26.0895137, 44.3671642], [26.0903094, 44.3670389], [26.0905997, 44.3672025], [26.0935304, 44.3629042], [26.0948153, 44.3631542], [26.0954708, 44.3599713], [26.095973, 44.360015], [26.0960763, 44.3613032], [26.0979145, 44.3622628], [26.0990819, 44.3675712], [26.1135888, 44.3656117], [26.1123229, 44.3609023], [26.1303865, 44.3512013], [26.1274337, 44.3483469], [26.1466128, 44.3378144], [26.1462136, 44.3377113], [26.1463219, 44.3372829], [26.1474959, 44.3374077], [26.1494825, 44.3356135], [26.1519506, 44.3342466], [26.1565182, 44.3355371], [26.1566582, 44.3370921], [26.1571706, 44.3376368], [26.1561539, 44.3393755], [26.1639756, 44.3417679], [26.163238, 44.342744], [26.1640772, 44.3425592], [26.1668033, 44.3436442], [26.1643428, 44.346806], [26.1612704, 44.3455816], [26.1521918, 44.3574552], [26.1518115, 44.3584539], [26.1519719, 44.3585798], [26.1505632, 44.3604421], [26.1508323, 44.3605551], [26.1486209, 44.3635013], [26.1481722, 44.363301], [26.1477333, 44.3636217], [26.1446079, 44.3671707], [26.1436803, 44.3684038], [26.1442405, 44.368701], [26.1437315, 44.3693609], [26.1430388, 44.3692022], [26.1428446, 44.3694542], [26.1448822, 44.3720345], [26.1434832, 44.3725732], [26.1436283, 44.3729251], [26.1449768, 44.3746799], [26.1454733, 44.3744886], [26.1456397, 44.3746468], [26.1485028, 44.3782231], [26.1474994, 44.378632], [26.1511992, 44.38386], [26.151765, 44.3836446], [26.1540596, 44.3868068], [26.1536135, 44.3869649], [26.15431, 44.3880091], [26.1565657, 44.3902031], [26.1570388, 44.3918436], [26.1619313, 44.3983101], [26.1777871, 44.3943182], [26.1809228, 44.3938319], [26.2121336, 44.3950713], [26.2117331, 44.3986302], [26.2138156, 44.3987068], [26.2140856, 44.3991666], [26.2137017, 44.3996784], [26.2133422, 44.3995523], [26.2126496, 44.4014983], [26.2129256, 44.4020485], [26.212285, 44.4031897], [26.2119584, 44.403096], [26.2111874, 44.4038726], [26.2103804, 44.4040706], [26.2100667, 44.4038148], [26.2095531, 44.4039984], [26.209099, 44.4029998], [26.2080396, 44.4033666], [26.2085013, 44.4051466], [26.2119027, 44.4045904], [26.2116049, 44.405031], [26.2118446, 44.4052354], [26.2111774, 44.4063643], [26.2165208, 44.406929], [26.2178742, 44.407185], [26.2180856, 44.4074916], [26.2185209, 44.4089397], [26.217788, 44.4170071], [26.2182789, 44.4186397], [26.2215748, 44.4181326], [26.2222053, 44.4207647], [26.2228731, 44.4223837], [26.2231882, 44.4223129], [26.2240044, 44.4241465], [26.2243017, 44.424079], [26.2244714, 44.4244618], [26.2208015, 44.4254824], [26.2209047, 44.4263514], [26.221209, 44.4266603], [26.2227531, 44.4263458], [26.2241573, 44.4285357], [26.2254322, 44.4315406], [26.2255768, 44.4324077], [26.2244719, 44.4326072], [26.2224537, 44.4315948], [26.219079, 44.4311529], [26.2175583, 44.4320427], [26.2155951, 44.4347369], [26.2151018, 44.4349747], [26.2142055, 44.4347633], [26.2127168, 44.4334603], [26.2115379, 44.4330072], [26.2090314, 44.4335541], [26.2077826, 44.4341596], [26.2064739, 44.4356141], [26.2056513, 44.4380904], [26.2049469, 44.4388354], [26.2036321, 44.4389825], [26.1999914, 44.4386934], [26.1987033, 44.4389048], [26.1976594, 44.4395067], [26.1970916, 44.4401023], [26.1966933, 44.4411525], [26.1970146, 44.4416904], [26.1977705, 44.4421908], [26.1960229, 44.445573], [26.1948758, 44.4464243], [26.1940499, 44.4467303], [26.1921733, 44.4468394], [26.191515, 44.4466002], [26.1899605, 44.4450319], [26.1889241, 44.444274], [26.1877882, 44.443807], [26.1870168, 44.4439538], [26.1838686, 44.4453758], [26.183625, 44.4450423], [26.1827499, 44.4453495], [26.1828891, 44.4457002], [26.1816778, 44.4459923], [26.1807091, 44.4459443], [26.1772523, 44.4443321], [26.1762672, 44.4442784], [26.1752157, 44.4446142], [26.1744466, 44.4453559], [26.1745405, 44.4468676], [26.1772315, 44.4497636], [26.1770692, 44.4504837], [26.1777144, 44.4522237], [26.1777296, 44.4529702], [26.1774464, 44.4535507], [26.1768039, 44.4538814], [26.1752495, 44.4538694], [26.1744179, 44.4536105], [26.169404, 44.4506967], [26.1686212, 44.4509816], [26.1665263, 44.452919], [26.1637378, 44.4534798], [26.1633233, 44.4534914], [26.1633067, 44.4530925], [26.1624707, 44.4530997], [26.1617638, 44.453315], [26.160791, 44.4541275], [26.1591978, 44.4540294], [26.1591416, 44.4544641], [26.1585953, 44.454445], [26.1585285, 44.4542176], [26.1571966, 44.4545149], [26.1562802, 44.4549929], [26.1559667, 44.4554463], [26.1641266, 44.465228], [26.1761145, 44.4753978], [26.178731, 44.4775733], [26.1801887, 44.4784578], [26.1821865, 44.4790963], [26.1848972, 44.4791121], [26.1628021, 44.4817281], [26.1628607, 44.4819569], [26.1604679, 44.4819842], [26.1403495, 44.4843146], [26.140141, 44.4845469], [26.140065, 44.4843446], [26.1151899, 44.4872279], [26.1106488, 44.4907322], [26.1106604, 44.4914082], [26.1117781, 44.4920441], [26.1116797, 44.4922804], [26.1089117, 44.496811], [26.1078436, 44.4963954], [26.1072108, 44.4969185], [26.105564, 44.5004264], [26.105262, 44.5003236], [26.1043995, 44.5016387], [26.1048126, 44.5022756], [26.1097611, 44.5033564], [26.1087368, 44.5059206], [26.1040788, 44.504938], [26.1028657, 44.5087834], [26.1029618, 44.5102602], [26.1040838, 44.5152268], [26.1044078, 44.5153945], [26.1042453, 44.5155465], [26.1044598, 44.5166441], [26.1049196, 44.5166322], [26.1048253, 44.5155788], [26.1055387, 44.5155391], [26.1057559, 44.5175798], [26.1061613, 44.5175722], [26.1062315, 44.5184083], [26.104955, 44.51857], [26.1049745, 44.5190003], [26.1043721, 44.5198442], [26.1050234, 44.5264137], [26.1032775, 44.5295308], [26.1033063, 44.5311609], [26.1044818, 44.5395441], [26.1018507, 44.5395953], [26.1017851, 44.5406886], [26.1008922, 44.5406604], [26.1007373, 44.5413964], [26.0977537, 44.5412252], [26.0977356, 44.5404705], [26.0966696, 44.5404231], [26.0969004, 44.5392326], [26.0880805, 44.5383667], [26.0837192, 44.5382335], [26.0804511, 44.5374437], [26.0777017, 44.5371169], [26.077402, 44.5392971], [26.0767022, 44.5407262], [26.0762556, 44.5410034], [26.0736363, 44.5410906], [26.0730251, 44.5413832], [26.0692811, 44.5393722], [26.0687943, 44.5383301], [26.0687934, 44.5349583], [26.0686004, 44.5348509], [26.0501733, 44.5300786], [26.0494947, 44.5313153], [26.0487548, 44.5310244], [26.0492154, 44.5298237], [26.0335258, 44.5235548], [26.0293138, 44.5276927], [26.0240187, 44.5259086], [26.0225868, 44.5235693], [26.0224677, 44.522987], [26.0246281, 44.5202622], [26.0249076, 44.5203883], [26.0253479, 44.5201409], [26.0128765, 44.5151713], [26.0119963, 44.5160033], [26.0112332, 44.5156002], [26.0107006, 44.5159994], [26.0085778, 44.514806], [26.0089026, 44.5141309], [26.0084742, 44.5137637], [26.009522, 44.5127191], [26.0086762, 44.5116585], [26.00884, 44.5107804], [26.008441, 44.508528], [26.0069093, 44.5006481], [26.0066478, 44.5006298], [26.0068485, 44.5001242], [26.0064463, 44.4996975], [26.0024488, 44.498836], [26.0005669, 44.4989652], [25.9998574, 44.4992838], [25.9985712, 44.4990379], [25.9958955, 44.4971495], [25.9952935, 44.4961254], [25.9948159, 44.4958682], [25.9937624, 44.4964926], [25.9934067, 44.4962848], [25.9913256, 44.4978474], [25.9877324, 44.4996449], [25.9867947, 44.4989263], [25.983276, 44.4980384], [25.9829624, 44.497024], [25.9843322, 44.4965962], [25.9836031, 44.495037], [25.9864795, 44.4930581], [25.987956, 44.4927007], [25.9861156, 44.4914137], [25.9878453, 44.492107], [25.9865808, 44.4898668], [25.9838919, 44.4830997], [25.9816386, 44.4799522], [25.9807027, 44.4780493], [25.9804164, 44.4769522], [25.9802634, 44.4721418], [25.9798514, 44.4707479], [25.9763561, 44.4676078], [25.9772894, 44.4671493], [25.9759622, 44.4664048], [25.9761319, 44.4656073], [25.977495, 44.4660528], [25.978389, 44.4658164], [25.9797385, 44.466572], [25.9821012, 44.467042], [25.9926206, 44.4632326], [26.0018758, 44.460473], [26.0065604, 44.458349], [26.0085159, 44.4579107], [26.0114562, 44.4582245], [26.0133841, 44.4580187], [26.0158999, 44.4553934], [26.0131749, 44.4541202], [26.0135522, 44.4521015], [26.0142168, 44.4512897], [26.0148639, 44.4509451], [26.0146054, 44.4502674], [26.0147297, 44.449689], [26.0159794, 44.4491189], [26.0172673, 44.4492842], [26.0179505, 44.449664], [26.0185186, 44.449082], [26.0198033, 44.448387], [26.0191456, 44.4462739], [26.019251, 44.4460126], [26.0123348, 44.4429485], [25.9666745, 44.4407414]]]}}